{
    "links": {
        "self": "http://www.neowsapp.com/rest/v1/neo/3797747?api_key=iIulBulltgU6a56xZRHN4H3l9WmuAYTsLGpBGhQ2"
    },
    "id": "3797747",
    "neo_reference_id": "3797747",
    "name": "(2018 BN1)",
    "designation": "2018 BN1",
    "nasa_jpl_url": "http://ssd.jpl.nasa.gov/sbdb.cgi?sstr=3797747",
    "absolute_magnitude_h": 23.7,
    "estimated_diameter": {
        "kilometers": {
            "estimated_diameter_min": 0.0483676488,
            "estimated_diameter_max": 0.1081533507
        },
        "meters": {
            "estimated_diameter_min": 48.3676488219,
            "estimated_diameter_max": 108.1533506775
        },
        "miles": {
            "estimated_diameter_min": 0.0300542543,
            "estimated_diameter_max": 0.0672033557
        },
        "feet": {
            "estimated_diameter_min": 158.6865169607,
            "estimated_diameter_max": 354.8338390368
        }
    },
    "is_potentially_hazardous_asteroid": false,
    "close_approach_data": [
        {
            "close_approach_date": "2017-12-18",
            "close_approach_date_full": "2017-Dec-18 02:13",
            "epoch_date_close_approach": 1513563180000,
            "relative_velocity": {
                "kilometers_per_second": "8.2325001215",
                "kilometers_per_hour": "29637.000437578",
                "miles_per_hour": "18415.2795218939"
            },
            "miss_distance": {
                "astronomical": "0.1256111717",
                "lunar": "48.8627457913",
                "kilometers": "18791163.734524279",
                "miles": "11676287.7079778902"
            },
            "orbiting_body": "Earth"
        }
    ],
    "orbital_data": {
        "orbit_id": "2",
        "orbit_determination_date": "2018-01-24 06:57:35",
        "first_observation_date": "2018-01-16",
        "last_observation_date": "2018-01-24",
        "data_arc_in_days": 8,
        "observations_used": 12,
        "orbit_uncertainty": "9",
        "minimum_orbit_intersection": ".0275742",
        "jupiter_tisserand_invariant": "4.636",
        "epoch_osculation": "2458135.5",
        "eccentricity": ".4179834225017236",
        "semi_major_axis": "1.408320921796895",
        "inclination": "5.496403496342125",
        "ascending_node_longitude": "342.3274917491794",
        "orbital_period": "610.4510900761235",
        "perihelion_distance": ".8196661229234465",
        "perihelion_argument": "52.2639990876953",
        "aphelion_distance": "1.996975720670343",
        "perihelion_time": "2458066.417367909191",
        "mean_anomaly": "40.73995109025028",
        "mean_motion": ".5897278354521537",
        "equinox": "J2000",
        "orbit_class": {
            "orbit_class_type": "APO",
            "orbit_class_description": "Near-Earth asteroid orbits which cross the Earth’s orbit similar to that of 1862 Apollo",
            "orbit_class_range": "a (semi-major axis) > 1.0 AU; q (perihelion) < 1.017 AU"
        }
    },
    "is_sentry_object": false
}